STARLINK-1951_new
1 17553C 21009F   21326.12157485  .00541272  00000-0  34742-1 0  3269
2 17553  53.0542 213.1880 0005491 336.0507 135.9498 15.07429111    12
STARLINK-1951_old
1 27553C 21009F   21325.13368365  .00532816  00000-0  35056-1 0  3252
2 27553  53.0542 217.6275 0006176 351.0572 158.2119 15.06524099    17
